#dP2022  9 23 12  0  0.00000000      96 __u+U ITR00 EXT  IAC
## 2228 475200.00000000   900.00000000 59845 0.5000000000000
+  116   C06C07C08C09C10C11C12C13C14C16C19C20C21C22C23C24C25
+        C26C27C28C29C30C32C33C34C35C36C37C38C39C40C41C42C43
+        C44C45C46E01E02E03E04E05E07E08E09E10E11E12E13E14E15
+        E18E19E21E24E25E26E27E30E31E33E34E36G01G02G03G04G05
+        G07G08G09G10G11G12G13G14G15G16G17G18G19G20G21G22G23
+        G24G25G26G27G28G29G30G31G32J02J03R01R02R03R04R05R07
+        R08R09R11R12R13R14R15R17R18R19R20R21R24R25  0  0  0
++        16  7 11 11  8  8  8 11  9 17  8  9  9  8  9  7  7
++         8  6  9 10  9  9  8  9  8  8  7  9 11  8  9  8  7
++        10  9 10  8  8  7  8  7  7  7  8  9  8  7  7  7  7
++         9  7  8  7  6  7  8  7  8  6  8  7  7  7  8  7  9
++         7  8  7  6  7  7  6  7  8  8  8  7  7  8  8  7  6
++         7  7  7  7  9  7 11  8  7 10  8  7  8  8  7  9  8
++         9  9  8  8  8  7  8  8  9  7  6  9  8  9  0  0  0
%c M  cc GPS ccc cccc cccc cccc cccc ccccc ccccc ccccc ccccc
%c cc cc ccc ccc cccc cccc cccc cccc ccccc ccccc ccccc ccccc
%f  0.0000000  0.000000000  0.00000000000  0.000000000000000
%f  0.0000000  0.000000000  0.00000000000  0.000000000000000
%i    0    0    0    0      0      0      0      0         0
%i    0    0    0    0      0      0      0      0         0
/* IAC                                ULTRA-RAPID PREDICTION
/* S/V CLOCKS ARE ALIGNED TO GNSS TIME                      
/* G:C1WC2W R:C1PC2P E:C1XC5X C:C2IC6I J:C1CC2S             
/* PCV:IGS14_2218 OL/AL:FES2004  NONE     YN ORB:CoN CLK:CoN
*  2022 09 24  4 30  0.00000000
PC06 -12136.920183  40471.487439   1827.071377    908.796829
PC07  -4553.904300  28800.967632 -30362.506844   -183.455325
PC08 -18188.169737  23392.033733  29898.729823    479.042135
PC09  -7411.643933  41073.422272  -7325.828577   -854.509066
PC10   3187.674241  31424.995208 -27408.741126     92.836258
PC11  -1298.202863  27376.512791   5203.724390   -390.932036
PC12 -11702.861702  22203.980628 -12132.599868   -507.281428
PC13  -9055.099525  24652.587535  33032.008624     88.849980
PC14   7698.662008  20789.311096  16926.410361    673.380293
PC16 -14538.017596  39280.241910   6150.777098    135.435582
PC19 -16264.815724 -20714.192838  -9236.867642   -723.520254
PC20    148.699489 -18241.778102 -21121.827612    755.009307
PC21 -17701.578259   4523.459747  21105.529755   -460.511394
PC22 -24018.665930 -11401.495738   8507.516723   -759.004846
PC23  23443.708307   2252.284374 -14962.792286   -230.819526
PC24 -13353.577285  18108.121837 -16494.111405   -289.948535
PC25   8704.598736  13904.593814 -22580.728421   -673.764682
PC26 -24908.839857  12346.071832  -2195.569787    -11.886073
PC27      0.000000      0.000000      0.000000     25.596697
PC28  15142.205529   5425.372847  22807.029360     16.522578
PC29  -6836.697737 -23357.917500 -13663.618182     17.691311
PC30   5944.553379 -26963.762072   3985.632354      0.096950
PC32  17719.294715  -4599.144934 -21054.040409   -789.383594
PC33  16274.751998  20642.244068   9344.711364   -740.508667
PC34  -5295.165119  27253.684317  -2909.328217      1.682233
PC35 -15081.619044  -6491.356231 -22569.530263     10.913721
PC36  -7720.177386 -14413.529546  22642.283792   -357.580480
PC37  25628.611545 -11034.737998    983.065402   -292.577209
PC38 -24760.112212  24612.895983  23517.509957     26.388729
PC39 -15060.037113  37795.577265  11457.166425     -0.495140
PC40  -8148.272793  23190.380281 -34220.921922     -4.731534
PC41  24028.294232  11721.469222  -7958.064094   -107.739728
PC42  -1394.751935  17708.748872  21552.126540   -350.787624
PC43   6353.202050  23862.219732  13005.623593     15.925296
PC44 -14754.515499  15007.016824 -18349.303578     59.961223
PC45 -23582.029663  -1938.210671  14782.753835     -1.520560
PC46  11740.236047 -18181.271107  17645.690321     -1.885236
PE01   3436.388529 -16352.738553  24441.458809   -533.979048
PE02  -3199.134295  16385.233938 -24436.099040    326.588259
PE03   1945.369891  27152.495584  11602.662025   -602.955526
PE04 -14728.174591 -24842.853245   6491.948162  -1122.090459
PE05 -12272.241059  13544.211228  23280.419688   -141.046462
PE07  19121.518864   7707.270206 -21237.501083   -707.822482
PE08  14801.142114  24765.029898  -6597.180036   -603.944997
PE09 -19039.925040  -7863.266487  21258.562823   -669.408969
PE10 -14681.718583  -7065.927710 -24719.970820   -478.968307
PE11 -20309.426501   3513.885670 -21257.680138   2090.565825
PE12  -7265.976410 -15845.083765 -23926.227920   -185.882320
PE13  19937.608380  -2786.687328  21703.157734    430.611316
PE14   9242.612281 -18753.418215  15891.104954      8.415241
PE15   7056.874104  15958.674999  23911.611831    718.424984
PE18 -17474.788801   9797.469323 -22982.541814   -940.395498
PE19     40.860488 -26184.374473 -13801.471079  -4448.029615
PE21  21968.218218  -8930.528218  17723.641408   -759.518101
PE24 -29169.616190  -4928.160129    582.218356   -853.874905
PE25 -22199.231440   8743.104287 -17503.054774   -588.461384
PE26  20828.341705 -20197.673318   5903.803455  -1648.736003
PE27  29312.333924   4133.975393    421.377220   -399.347802
PE30  18531.301586  15040.128392 -17517.749030   -861.620288
PE31 -19316.844297 -14656.317809  16990.277089   -504.237565
PE33   9918.560215 -25179.374031 -11994.185469   -454.032936
PE34  -9723.523596  25166.527540  12147.119761     -6.059561
PE36 -21005.534318  19715.600944  -6791.729719   -435.980591
PG01  12260.773660 -21470.202669  -9534.047974    278.695261
PG02 -15169.559636  21816.391164   2849.939670   -644.959798
PG03   7550.297062 -13368.085330 -21786.532604   -355.743357
PG04   2691.181304 -23435.995941 -12106.743424   -114.124332
PG05 -19129.900746   7967.148588  16511.590752    -97.824680
PG07  -2127.262395 -18025.385988  19643.189952    305.001602
PG08   8596.909066 -16367.866776  18891.360933    -85.924690
PG09  -6847.581976 -25591.152414  -1676.002872   -292.176970
PG10  22359.025712  11632.530367   9010.935597     -4.617673
PG11 -21837.201849   9211.506530 -11951.766559    -19.020572
PG12  -9084.903073  12788.257076 -21686.410801   -283.211138
PG13 -13548.360473   7895.380787  21241.201056    393.362176
PG14 -20652.857180 -13346.856605  10188.022436   -101.209524
PG15  -6910.816731  17604.575027  18093.520542    -26.490528
PG16  23731.380964   -752.013313  12085.664871   -524.909471
PG17 -12579.385472 -20016.789994 -11604.440023    662.209651
PG18   2286.807356  17161.095326  20096.822586     38.123239
PG19 -15188.909806 -10773.159564 -19276.600740    214.795574
PG20 -26003.761054   1342.315143   4581.037376    483.907233
PG21  16972.223897 -19891.937964   1040.437650    159.039235
PG22  15601.158100   7761.580071 -19678.658187    333.384781
PG23  14037.504430  14882.506767  16995.912737     -0.380915
PG24 -13396.774151  22230.082923  -4770.290682    124.744727
PG25   4663.466553  16231.585445 -20848.365316    375.303101
PG26  26454.628664   2962.158595   2391.146846    229.807883
PG27  14439.878762  -3683.157951  21772.669481    207.886480
PG28 -24461.088951  -9878.704367   2048.119611    336.014729
PG29   3905.130551  26116.931523  -2429.816926   -554.139924
PG30 -12262.752021 -10021.660621  21422.547934   -537.122966
PG31  19093.110511   -325.399691 -18788.568233   -194.445584
PG32  15183.142352  16953.035767 -13704.492665   -242.523411
PJ02 -31299.862808  15263.522321 -19161.158397     -5.682070
PJ03 -23532.050753  32052.075717  -9365.676340     -1.973262
PR01 -11047.756773   4044.988608  22628.357158     15.204905
PR02   4174.363523  17705.703965  17950.325798    -22.749973
PR03  15811.675917  19882.834104   2681.043249     64.275409
PR04  18282.058695  11149.885638 -13851.117554    158.702907
PR05  10868.344226  -3688.973506 -22778.116978    100.129440
PR07 -16121.504555 -19647.302910  -1800.591424     41.477836
PR08 -18356.942463 -10839.148522  14033.415436    -67.335531
PR09   7055.026151 -12339.634513  21183.186497     78.382246
PR11 -23459.402629    237.573977  10046.635168     26.538881
PR12 -22271.388156   8868.513722  -8664.418080     21.550819
PR13  -8836.096361  12088.961724 -20658.746371    -27.106887
PR14  11576.981207   8067.912929 -21227.378592     24.245734
PR15  23834.315121   -473.350357  -9044.906499     93.564737
PR17   2835.323381  17441.537626  18381.775202    563.537740
PR18  10484.406525   1560.961979  23213.923530     43.895895
PR19  13287.536482 -13845.599753  16812.721510   -204.797595
PR20   8148.801766 -24039.671363  -2350.151852    -78.926439
PR21  -3516.861648 -16280.876859 -19333.984613   -336.166272
PR24  -7078.198707  24304.869042   3044.527223    116.349822
PR25 -11066.798526  -1310.097622 -22919.501803     13.517033
EOF
